[{"OBJECT_NAME":"OPTICUBE 04","OBJECT_ID":"2016-067D","EPOCH":"2026-03-09T12:14:28.758048","MEAN_MOTION":15.09188378,"ECCENTRICITY":0.00170901,"INCLINATION":98.0811,"RA_OF_ASC_NODE":275.5525,"ARG_OF_PERICENTER":94.6311,"MEAN_ANOMALY":265.6869,"EPHEMERIS_TYPE":0,"CLASSIFICATION_TYPE":"U","NORAD_CAT_ID":41851,"ELEMENT_SET_NO":999,"REV_AT_EPOCH":51013,"BSTAR":0.00024566739,"MEAN_MOTION_DOT":3.845e-5,"MEAN_MOTION_DDOT":0},{"OBJECT_NAME":"STARLINK-35023","OBJECT_ID":"2025-184G","EPOCH":"2026-03-09T17:12:56.350368","MEAN_MOTION":15.05647042,"ECCENTRICITY":0.00010549,"INCLINATION":97.6019,"RA_OF_ASC_NODE":122.6676,"ARG_OF_PERICENTER":93.352,"MEAN_ANOMALY":266.7828,"EPHEMERIS_TYPE":0,"CLASSIFICATION_TYPE":"U","NORAD_CAT_ID":65279,"ELEMENT_SET_NO":999,"REV_AT_EPOCH":3130,"BSTAR":0.00019345439,"MEAN_MOTION_DOT":2.731e-5,"MEAN_MOTION_DDOT":0}]
