OPTICUBE 04             
1 41851U 16067D   26068.51005515  .00003771  00000+0  24102-3 0  9992
2 41851  98.0811 275.5525 0017089  94.6311 265.6869 15.09188144510131
STARLINK-35023          
1 65279U 25184G   26068.71731887  .00002731  00000+0  19345-3 0  9990
2 65279  97.6019 122.6676 0001055  93.3520 266.7828 15.05647042 31306
